STARLINK-31394          
1 59185U 24045H   26068.43280715 -.00005888  00000+0 -20443-3 0  9991
2 59185  43.0049  83.4936 0001456 280.5908  79.4780 15.27604692113249
FLOCK 4G-1              
1 62666U 25009BK  26068.75951132  .00013534  00000+0  50654-3 0  9995
2 62666  97.4059 151.3158 0003180 323.1401  36.9619 15.27421081 63725
